[{"OBJECT_NAME":"STARLINK-30277","OBJECT_ID":"2023-122P","EPOCH":"2026-03-09T01:53:04.350912","MEAN_MOTION":15.27517907,"ECCENTRICITY":0.00012176,"INCLINATION":43.002,"RA_OF_ASC_NODE":313.8516,"ARG_OF_PERICENTER":270.3768,"MEAN_ANOMALY":89.6944,"EPHEMERIS_TYPE":0,"CLASSIFICATION_TYPE":"U","NORAD_CAT_ID":57645,"ELEMENT_SET_NO":999,"REV_AT_EPOCH":14378,"BSTAR":-0.00012984328,"MEAN_MOTION_DOT":-3.826e-5,"MEAN_MOTION_DDOT":0},{"OBJECT_NAME":"FLOCK 4G-30","OBJECT_ID":"2025-009BY","EPOCH":"2026-03-09T17:00:32.842080","MEAN_MOTION":15.27244548,"ECCENTRICITY":0.00037948,"INCLINATION":97.3969,"RA_OF_ASC_NODE":150.6012,"ARG_OF_PERICENTER":342.4152,"MEAN_ANOMALY":17.6955,"EPHEMERIS_TYPE":0,"CLASSIFICATION_TYPE":"U","NORAD_CAT_ID":62679,"ELEMENT_SET_NO":999,"REV_AT_EPOCH":12134,"BSTAR":0.00049474629,"MEAN_MOTION_DOT":0.00013147,"MEAN_MOTION_DDOT":0}]
