STARLINK-30277          
1 57645U 23122P   26068.07852258 -.00003826  00000+0 -12984-3 0  9993
2 57645  43.0020 313.8516 0001217 270.3768  89.6944 15.27517907143786
FLOCK 4G-30             
1 62679U 25009BY  26068.70871344  .00013147  00000+0  49475-3 0  9999
2 62679  97.3969 150.6012 0003795 342.4152  17.6955 15.27244548121341
